[{"OBJECT_NAME":"FENGYUN 2F","OBJECT_ID":"2012-002A","EPOCH":"2023-04-26T20:46:28.902720","MEAN_MOTION":1.00273333,"ECCENTRICITY":0.0001687,"INCLINATION":4.5624,"RA_OF_ASC_NODE":77.1053,"ARG_OF_PERICENTER":52.0613,"MEAN_ANOMALY":149.6324,"EPHEMERIS_TYPE":0,"CLASSIFICATION_TYPE":"U","NORAD_CAT_ID":38049,"ELEMENT_SET_NO":999,"REV_AT_EPOCH":4137,"BSTAR":0,"MEAN_MOTION_DOT":-3.58e-6,"MEAN_MOTION_DDOT":0},{"OBJECT_NAME":"METEOSAT-10 (MSG-3)","OBJECT_ID":"2012-035B","EPOCH":"2023-04-26T19:42:18.111744","MEAN_MOTION":1.00275166,"ECCENTRICITY":4.58e-5,"INCLINATION":2.0726,"RA_OF_ASC_NODE":54.3508,"ARG_OF_PERICENTER":269.7826,"MEAN_ANOMALY":185.7344,"EPHEMERIS_TYPE":0,"CLASSIFICATION_TYPE":"U","NORAD_CAT_ID":38552,"ELEMENT_SET_NO":999,"REV_AT_EPOCH":3935,"BSTAR":0,"MEAN_MOTION_DOT":-9.0e-8,"MEAN_MOTION_DDOT":0},{"OBJECT_NAME":"FENGYUN 3C","OBJECT_ID":"2013-052A","EPOCH":"2023-04-27T03:44:37.561920","MEAN_MOTION":14.16027662,"ECCENTRICITY":0.0012419,"INCLINATION":98.4317,"RA_OF_ASC_NODE":133.995,"ARG_OF_PERICENTER":90.5338,"MEAN_ANOMALY":269.7255,"EPHEMERIS_TYPE":0,"CLASSIFICATION_TYPE":"U","NORAD_CAT_ID":39260,"ELEMENT_SET_NO":999,"REV_AT_EPOCH":49631,"BSTAR":0.00011972,"MEAN_MOTION_DOT":1.96e-6,"MEAN_MOTION_DDOT":0},{"OBJECT_NAME":"METEOR-M 2","OBJECT_ID":"2014-037A","EPOCH":"2023-04-27T01:44:22.900992","MEAN_MOTION":14.20771653,"ECCENTRICITY":0.000685,"INCLINATION":98.4252,"RA_OF_ASC_NODE":125.4208,"ARG_OF_PERICENTER":124.1311,"MEAN_ANOMALY":236.053,"EPHEMERIS_TYPE":0,"CLASSIFICATION_TYPE":"U","NORAD_CAT_ID":40069,"ELEMENT_SET_NO":999,"REV_AT_EPOCH":45639,"BSTAR":0.0002136,"MEAN_MOTION_DOT":4.2e-6,"MEAN_MOTION_DDOT":0},{"OBJECT_NAME":"FENGYUN 2G","OBJECT_ID":"2014-090A","EPOCH":"2023-04-26T20:41:27.448800","MEAN_MOTION":1.00284199,"ECCENTRICITY":0.0002008,"INCLINATION":2.726,"RA_OF_ASC_NODE":86.1695,"ARG_OF_PERICENTER":61.1646,"MEAN_ANOMALY":116.9984,"EPHEMERIS_TYPE":0,"CLASSIFICATION_TYPE":"U","NORAD_CAT_ID":40367,"ELEMENT_SET_NO":999,"REV_AT_EPOCH":3049,"BSTAR":0,"MEAN_MOTION_DOT":-3.03e-6,"MEAN_MOTION_DDOT":0},{"OBJECT_NAME":"METEOSAT-11 (MSG-4)","OBJECT_ID":"2015-034A","EPOCH":"2023-04-26T19:45:03.794976","MEAN_MOTION":1.00270518,"ECCENTRICITY":9.31e-5,"INCLINATION":0.5254,"RA_OF_ASC_NODE":31.2495,"ARG_OF_PERICENTER":52.078,"MEAN_ANOMALY":76.8035,"EPHEMERIS_TYPE":0,"CLASSIFICATION_TYPE":"U","NORAD_CAT_ID":40732,"ELEMENT_SET_NO":999,"REV_AT_EPOCH":2851,"BSTAR":0,"MEAN_MOTION_DOT":6.1e-7,"MEAN_MOTION_DDOT":0},{"OBJECT_NAME":"ELEKTRO-L 2","OBJECT_ID":"2015-074A","EPOCH":"2023-04-26T19:38:09.588192","MEAN_MOTION":1.0027132,"ECCENTRICITY":1.56e-5,"INCLINATION":3.7794,"RA_OF_ASC_NODE":84.4082,"ARG_OF_PERICENTER":155.7437,"MEAN_ANOMALY":254.471,"EPHEMERIS_TYPE":0,"CLASSIFICATION_TYPE":"U","NORAD_CAT_ID":41105,"ELEMENT_SET_NO":999,"REV_AT_EPOCH":2701,"BSTAR":0,"MEAN_MOTION_DOT":-1.16e-6,"MEAN_MOTION_DDOT":0},{"OBJECT_NAME":"HIMAWARI-9","OBJECT_ID":"2016-064A","EPOCH":"2023-04-26T20:22:48.561888","MEAN_MOTION":1.00270515,"ECCENTRICITY":8.08e-5,"INCLINATION":0.0058,"RA_OF_ASC_NODE":203.6277,"ARG_OF_PERICENTER":208.481,"MEAN_ANOMALY":248.9205,"EPHEMERIS_TYPE":0,"CLASSIFICATION_TYPE":"U","NORAD_CAT_ID":41836,"ELEMENT_SET_NO":999,"REV_AT_EPOCH":2368,"BSTAR":0,"MEAN_MOTION_DOT":-2.77e-6,"MEAN_MOTION_DDOT":0},{"OBJECT_NAME":"FENGYUN 4A","OBJECT_ID":"2016-077A","EPOCH":"2023-04-26T21:57:42.693408","MEAN_MOTION":1.00270453,"ECCENTRICITY":0.0004544,"INCLINATION":0.1534,"RA_OF_ASC_NODE":287.7923,"ARG_OF_PERICENTER":215.5341,"MEAN_ANOMALY":145.5175,"EPHEMERIS_TYPE":0,"CLASSIFICATION_TYPE":"U","NORAD_CAT_ID":41882,"ELEMENT_SET_NO":999,"REV_AT_EPOCH":2347,"BSTAR":0,"MEAN_MOTION_DOT":-3.33e-6,"MEAN_MOTION_DDOT":0},{"OBJECT_NAME":"CYGFM05","OBJECT_ID":"2016-078A","EPOCH":"2023-04-26T03:16:42.494016","MEAN_MOTION":15.19608629,"ECCENTRICITY":0.0013649,"INCLINATION":34.9566,"RA_OF_ASC_NODE":50.8477,"ARG_OF_PERICENTER":7.8736,"MEAN_ANOMALY":352.2189,"EPHEMERIS_TYPE":0,"CLASSIFICATION_TYPE":"U","NORAD_CAT_ID":41884,"ELEMENT_SET_NO":999,"REV_AT_EPOCH":35231,"BSTAR":0.0003031,"MEAN_MOTION_DOT":6.595e-5,"MEAN_MOTION_DDOT":0},{"OBJECT_NAME":"CYGFM02","OBJECT_ID":"2016-078C","EPOCH":"2023-04-26T04:29:55.903776","MEAN_MOTION":15.20262152,"ECCENTRICITY":0.0012519,"INCLINATION":34.9592,"RA_OF_ASC_NODE":40.2318,"ARG_OF_PERICENTER":21.0607,"MEAN_ANOMALY":339.062,"EPHEMERIS_TYPE":0,"CLASSIFICATION_TYPE":"U","NORAD_CAT_ID":41886,"ELEMENT_SET_NO":999,"REV_AT_EPOCH":35246,"BSTAR":0.00028591,"MEAN_MOTION_DOT":6.337e-5,"MEAN_MOTION_DDOT":0},{"OBJECT_NAME":"CYGFM01","OBJECT_ID":"2016-078D","EPOCH":"2023-04-27T03:58:44.168736","MEAN_MOTION":15.19399262,"ECCENTRICITY":0.0013872,"INCLINATION":34.9526,"RA_OF_ASC_NODE":47.3273,"ARG_OF_PERICENTER":16.051,"MEAN_ANOMALY":344.064,"EPHEMERIS_TYPE":0,"CLASSIFICATION_TYPE":"U","NORAD_CAT_ID":41887,"ELEMENT_SET_NO":999,"REV_AT_EPOCH":35253,"BSTAR":0.00029268,"MEAN_MOTION_DOT":6.329e-5,"MEAN_MOTION_DDOT":0},{"OBJECT_NAME":"CYGFM08","OBJECT_ID":"2016-078E","EPOCH":"2023-04-27T02:43:15.349440","MEAN_MOTION":15.19951953,"ECCENTRICITY":0.0012752,"INCLINATION":34.9505,"RA_OF_ASC_NODE":38.7415,"ARG_OF_PERICENTER":29.885,"MEAN_ANOMALY":330.2589,"EPHEMERIS_TYPE":0,"CLASSIFICATION_TYPE":"U","NORAD_CAT_ID":41888,"ELEMENT_SET_NO":999,"REV_AT_EPOCH":35258,"BSTAR":0.00028834,"MEAN_MOTION_DOT":6.334e-5,"MEAN_MOTION_DDOT":0}]
