FENGYUN 2F              
1 38049U 12002A   23116.86561230 -.00000358  00000+0  00000+0 0  9998
2 38049   4.5624  77.1053 0001687  52.0613 149.6324  1.00273333 41375
METEOSAT-10 (MSG-3)     
1 38552U 12035B   23116.82104296 -.00000009  00000+0  00000+0 0  9997
2 38552   2.0726  54.3508 0000458 269.7826 185.7344  1.00275166 39354
FENGYUN 3C              
1 39260U 13052A   23117.15599030  .00000196  00000+0  11972-3 0  9995
2 39260  98.4317 133.9950 0012419  90.5338 269.7255 14.16027662496313
METEOR-M 2              
1 40069U 14037A   23117.07248728  .00000420  00000+0  21360-3 0  9996
2 40069  98.4252 125.4208 0006850 124.1311 236.0530 14.20771653456397
FENGYUN 2G              
1 40367U 14090A   23116.86212325 -.00000303  00000+0  00000+0 0  9991
2 40367   2.7260  86.1695 0002008  61.1646 116.9984  1.00284199 30496
METEOSAT-11 (MSG-4)     
1 40732U 15034A   23116.82296059  .00000061  00000+0  00000+0 0  9998
2 40732   0.5254  31.2495 0000931  52.0780  76.8035  1.00270518 28512
ELEKTRO-L 2             
1 41105U 15074A   23116.81816653 -.00000116  00000+0  00000+0 0  9996
2 41105   3.7794  84.4082 0000156 155.7437 254.4710  1.00271320 27012
HIMAWARI-9              
1 41836U 16064A   23116.84917317 -.00000277  00000+0  00000+0 0  9997
2 41836   0.0058 203.6277 0000808 208.4810 248.9205  1.00270515 23683
FENGYUN 4A              
1 41882U 16077A   23116.91507747 -.00000333  00000+0  00000+0 0  9995
2 41882   0.1534 287.7923 0004544 215.5341 145.5175  1.00270453 23470
CYGFM05                 
1 41884U 16078A   23116.13660294  .00006595  00000+0  30310-3 0  9995
2 41884  34.9566  50.8477 0013649   7.8736 352.2189 15.19608629352316
CYGFM02                 
1 41886U 16078C   23116.18745259  .00006337  00000+0  28591-3 0  9999
2 41886  34.9592  40.2318 0012519  21.0607 339.0620 15.20262152352462
CYGFM01                 
1 41887U 16078D   23117.16578899  .00006329  00000+0  29268-3 0  9996
2 41887  34.9526  47.3273 0013872  16.0510 344.0640 15.19399262352535
CYGFM08                 
1 41888U 16078E   23117.11337210  .00006334  00000+0  28834-3 0  9996
2 41888  34.9505  38.7415 0012752  29.8850 330.2589 15.19951953352585
